IRIDIUM 136             
1 42962U 17061H   24137.86968881  .00000038  00000+0  66790-5 0  9992
2 42962  86.3971 343.4174 0002322  80.2085 279.9373 14.34215956345717
